CCSDS_OMM_VERS = 2.0
CREATION_DATE  = 
ORIGINATOR     = 

OBJECT_NAME    = YOTSUBA-KULOVER
OBJECT_ID      = 1998-067XN
CENTER_NAME    = EARTH
REF_FRAME      = TEME
TIME_SYSTEM    = UTC
MEAN_ELEMENT_THEORY = SGP/SGP4

EPOCH          = 2026-02-25T05:29:25.834272
MEAN_MOTION    = 15.75562534
ECCENTRICITY   = .00059525
INCLINATION    = 51.6225
RA_OF_ASC_NODE = 121.6714
ARG_OF_PERICENTER = 0.1633
MEAN_ANOMALY   = 359.9367

EPHEMERIS_TYPE = 0
CLASSIFICATION_TYPE = U
NORAD_CAT_ID   = 65941
ELEMENT_SET_NO = 999
REV_AT_EPOCH   = 2153
BSTAR          = .91963899E-3
MEAN_MOTION_DOT = .145179E-2
MEAN_MOTION_DDOT = 0

CCSDS_OMM_VERS = 2.0
CREATION_DATE  = 
ORIGINATOR     = 

OBJECT_NAME    = BOTAN
OBJECT_ID      = 1998-067XP
CENTER_NAME    = EARTH
REF_FRAME      = TEME
TIME_SYSTEM    = UTC
MEAN_ELEMENT_THEORY = SGP/SGP4

EPOCH          = 2026-02-25T03:53:43.179648
MEAN_MOTION    = 16.01837079
ECCENTRICITY   = .00097038
INCLINATION    = 51.6131
RA_OF_ASC_NODE = 115.8662
ARG_OF_PERICENTER = 16.1128
MEAN_ANOMALY   = 344.0189

EPHEMERIS_TYPE = 0
CLASSIFICATION_TYPE = U
NORAD_CAT_ID   = 65942
ELEMENT_SET_NO = 999
REV_AT_EPOCH   = 2160
BSTAR          = .14498755E-2
MEAN_MOTION_DOT = .847599E-2
MEAN_MOTION_DDOT = .35832594E-3

CCSDS_OMM_VERS = 2.0
CREATION_DATE  = 
ORIGINATOR     = 

OBJECT_NAME    = E-KAGAKU-1
OBJECT_ID      = 1998-067XQ
CENTER_NAME    = EARTH
REF_FRAME      = TEME
TIME_SYSTEM    = UTC
MEAN_ELEMENT_THEORY = SGP/SGP4

EPOCH          = 2026-02-25T04:01:29.253216
MEAN_MOTION    = 15.75336584
ECCENTRICITY   = .00062016
INCLINATION    = 51.6245
RA_OF_ASC_NODE = 122.0281
ARG_OF_PERICENTER = 8.8041
MEAN_ANOMALY   = 351.3066

EPHEMERIS_TYPE = 0
CLASSIFICATION_TYPE = U
NORAD_CAT_ID   = 65943
ELEMENT_SET_NO = 999
REV_AT_EPOCH   = 2152
BSTAR          = .82234039E-3
MEAN_MOTION_DOT = .128224E-2
MEAN_MOTION_DDOT = 0

CCSDS_OMM_VERS = 2.0
CREATION_DATE  = 
ORIGINATOR     = 

OBJECT_NAME    = HRC MONOBLOCK CAMERA
OBJECT_ID      = 1998-067XR
CENTER_NAME    = EARTH
REF_FRAME      = TEME
TIME_SYSTEM    = UTC
MEAN_ELEMENT_THEORY = SGP/SGP4

EPOCH          = 2026-02-25T05:17:14.391744
MEAN_MOTION    = 15.60773084
ECCENTRICITY   = .00029724
INCLINATION    = 51.6275
RA_OF_ASC_NODE = 128.3951
ARG_OF_PERICENTER = 41.9154
MEAN_ANOMALY   = 318.2066

EPHEMERIS_TYPE = 0
CLASSIFICATION_TYPE = U
NORAD_CAT_ID   = 66052
ELEMENT_SET_NO = 999
REV_AT_EPOCH   = 2044
BSTAR          = .51588783E-3
MEAN_MOTION_DOT = .43523E-3
MEAN_MOTION_DDOT = 0

CCSDS_OMM_VERS = 2.0
CREATION_DATE  = 
ORIGINATOR     = 

OBJECT_NAME    = HTV-X1
OBJECT_ID      = 2025-241A
CENTER_NAME    = EARTH
REF_FRAME      = TEME
TIME_SYSTEM    = UTC
MEAN_ELEMENT_THEORY = SGP/SGP4

EPOCH          = 2026-02-25T04:28:15.128544
MEAN_MOTION    = 15.48279367
ECCENTRICITY   = .00083561
INCLINATION    = 51.6318
RA_OF_ASC_NODE = 134.1640
ARG_OF_PERICENTER = 131.0189
MEAN_ANOMALY   = 229.1523

EPHEMERIS_TYPE = 0
CLASSIFICATION_TYPE = U
NORAD_CAT_ID   = 66174
ELEMENT_SET_NO = 999
REV_AT_EPOCH   = 51
BSTAR          = .19738534E-3
MEAN_MOTION_DOT = .10179E-3
MEAN_MOTION_DDOT = 0

CCSDS_OMM_VERS = 2.0
CREATION_DATE  = 
ORIGINATOR     = 

OBJECT_NAME    = SZ-21 MODULE
OBJECT_ID      = 2025-246C
CENTER_NAME    = EARTH
REF_FRAME      = TEME
TIME_SYSTEM    = UTC
MEAN_ELEMENT_THEORY = SGP/SGP4

EPOCH          = 2026-02-25T00:24:03.071808
MEAN_MOTION    = 15.67483837
ECCENTRICITY   = .00014733
INCLINATION    = 41.4748
RA_OF_ASC_NODE = 281.3118
ARG_OF_PERICENTER = 289.6520
MEAN_ANOMALY   = 70.4162

EPHEMERIS_TYPE = 0
CLASSIFICATION_TYPE = U
NORAD_CAT_ID   = 66515
ELEMENT_SET_NO = 999
REV_AT_EPOCH   = 1608
BSTAR          = .2755469E-3
MEAN_MOTION_DOT = .30552E-3
MEAN_MOTION_DDOT = 0

CCSDS_OMM_VERS = 2.0
CREATION_DATE  = 
ORIGINATOR     = 

OBJECT_NAME    = SHENZHOU-22
OBJECT_ID      = 2025-272A
CENTER_NAME    = EARTH
REF_FRAME      = TEME
TIME_SYSTEM    = UTC
MEAN_ELEMENT_THEORY = SGP/SGP4

EPOCH          = 2026-02-25T02:33:37.468224
MEAN_MOTION    = 15.60088863
ECCENTRICITY   = .00055932
INCLINATION    = 41.4666
RA_OF_ASC_NODE = 284.6914
ARG_OF_PERICENTER = 191.4381
MEAN_ANOMALY   = 168.6331

EPHEMERIS_TYPE = 0
CLASSIFICATION_TYPE = U
NORAD_CAT_ID   = 66645
ELEMENT_SET_NO = 999
REV_AT_EPOCH   = 26764
BSTAR          = .16633644E-3
MEAN_MOTION_DOT = .13576E-3
MEAN_MOTION_DDOT = 0

CCSDS_OMM_VERS = 2.0
CREATION_DATE  = 
ORIGINATOR     = 

OBJECT_NAME    = SOYUZ-MS 28
OBJECT_ID      = 2025-275A
CENTER_NAME    = EARTH
REF_FRAME      = TEME
TIME_SYSTEM    = UTC
MEAN_ELEMENT_THEORY = SGP/SGP4

EPOCH          = 2026-02-25T04:28:15.128544
MEAN_MOTION    = 15.48279367
ECCENTRICITY   = .00083561
INCLINATION    = 51.6318
RA_OF_ASC_NODE = 134.1640
ARG_OF_PERICENTER = 131.0189
MEAN_ANOMALY   = 229.1523

EPHEMERIS_TYPE = 0
CLASSIFICATION_TYPE = U
NORAD_CAT_ID   = 66664
ELEMENT_SET_NO = 999
REV_AT_EPOCH   = 128
BSTAR          = .19738534E-3
MEAN_MOTION_DOT = .10179E-3
MEAN_MOTION_DDOT = 0

CCSDS_OMM_VERS = 2.0
CREATION_DATE  = 
ORIGINATOR     = 

OBJECT_NAME    = DUPLEX
OBJECT_ID      = 1998-067XS
CENTER_NAME    = EARTH
REF_FRAME      = TEME
TIME_SYSTEM    = UTC
MEAN_ELEMENT_THEORY = SGP/SGP4

EPOCH          = 2026-02-24T11:34:08.583456
MEAN_MOTION    = 15.55269683
ECCENTRICITY   = .00017468
INCLINATION    = 51.6292
RA_OF_ASC_NODE = 135.4660
ARG_OF_PERICENTER = 74.5239
MEAN_ANOMALY   = 285.5945

EPHEMERIS_TYPE = 0
CLASSIFICATION_TYPE = U
NORAD_CAT_ID   = 66906
ELEMENT_SET_NO = 999
REV_AT_EPOCH   = 1307
BSTAR          = .44997848E-3
MEAN_MOTION_DOT = .30694E-3
MEAN_MOTION_DDOT = 0

CCSDS_OMM_VERS = 2.0
CREATION_DATE  = 
ORIGINATOR     = 

OBJECT_NAME    = ISS OBJECT XT
OBJECT_ID      = 1998-067XT
CENTER_NAME    = EARTH
REF_FRAME      = TEME
TIME_SYSTEM    = UTC
MEAN_ELEMENT_THEORY = SGP/SGP4

EPOCH          = 2026-02-25T05:05:44.516256
MEAN_MOTION    = 15.65442147
ECCENTRICITY   = .00040075
INCLINATION    = 51.6259
RA_OF_ASC_NODE = 129.0857
ARG_OF_PERICENTER = 8.4734
MEAN_ANOMALY   = 351.6328

EPHEMERIS_TYPE = 0
CLASSIFICATION_TYPE = U
NORAD_CAT_ID   = 66907
ELEMENT_SET_NO = 999
REV_AT_EPOCH   = 1322
BSTAR          = .11223586E-2
MEAN_MOTION_DOT = .115555E-2
MEAN_MOTION_DDOT = 0

CCSDS_OMM_VERS = 2.0
CREATION_DATE  = 
ORIGINATOR     = 

OBJECT_NAME    = ISS OBJECT XU
OBJECT_ID      = 1998-067XU
CENTER_NAME    = EARTH
REF_FRAME      = TEME
TIME_SYSTEM    = UTC
MEAN_ELEMENT_THEORY = SGP/SGP4

EPOCH          = 2026-02-25T05:04:11.777952
MEAN_MOTION    = 15.65514560
ECCENTRICITY   = .00040397
INCLINATION    = 51.6250
RA_OF_ASC_NODE = 129.0753
ARG_OF_PERICENTER = 12.4749
MEAN_ANOMALY   = 347.6345

EPHEMERIS_TYPE = 0
CLASSIFICATION_TYPE = U
NORAD_CAT_ID   = 66908
ELEMENT_SET_NO = 999
REV_AT_EPOCH   = 1322
BSTAR          = .11418917E-2
MEAN_MOTION_DOT = .117953E-2
MEAN_MOTION_DDOT = 0

CCSDS_OMM_VERS = 2.0
CREATION_DATE  = 
ORIGINATOR     = 

OBJECT_NAME    = SILVERSAT
OBJECT_ID      = 1998-067XV
CENTER_NAME    = EARTH
REF_FRAME      = TEME
TIME_SYSTEM    = UTC
MEAN_ELEMENT_THEORY = SGP/SGP4

EPOCH          = 2026-02-25T05:33:44.064864
MEAN_MOTION    = 15.67569660
ECCENTRICITY   = .00049037
INCLINATION    = 51.6248
RA_OF_ASC_NODE = 128.4627
ARG_OF_PERICENTER = 7.7787
MEAN_ANOMALY   = 352.3284

EPHEMERIS_TYPE = 0
CLASSIFICATION_TYPE = U
NORAD_CAT_ID   = 66909
ELEMENT_SET_NO = 999
REV_AT_EPOCH   = 1323
BSTAR          = .12333476E-2
MEAN_MOTION_DOT = .138869E-2
MEAN_MOTION_DDOT = 0

