YOTSUBA-KULOVER         
1 65941U 98067XN  26056.22877123  .00145179  00000+0  91964-3 0  9994
2 65941  51.6225 121.6714 0005952   0.1633 359.9367 15.75562534 21530
BOTAN                   
1 65942U 98067XP  26056.16230532  .00847599  35833-3  14499-2 0  9993
2 65942  51.6131 115.8662 0009703  16.1128 344.0189 16.01837079 21602
E-KAGAKU-1              
1 65943U 98067XQ  26056.16769969  .00128224  00000+0  82234-3 0  9999
2 65943  51.6245 122.0281 0006201   8.8041 351.3066 15.75336584 21529
HRC MONOBLOCK CAMERA    
1 66052U 98067XR  26056.22030546  .00043523  00000+0  51589-3 0  9997
2 66052  51.6275 128.3951 0002972  41.9154 318.2066 15.60773084 20447
HTV-X1                  
1 66174U 25241A   26056.18628621  .00010179  00000+0  19739-3 0  9990
2 66174  51.6318 134.1640 0008356 131.0189 229.1523 15.48279367   516
SZ-21 MODULE            
1 66515U 25246C   26056.01670222  .00030552  00000+0  27555-3 0  9992
2 66515  41.4748 281.3118 0001473 289.6520  70.4162 15.67483837 16081
SHENZHOU-22             
1 66645U 25272A   26056.10668366  .00013576  00000+0  16634-3 0  9994
2 66645  41.4666 284.6914 0005593 191.4381 168.6331 15.60088863267647
SOYUZ-MS 28             
1 66664U 25275A   26056.18628621  .00010179  00000+0  19739-3 0  9991
2 66664  51.6318 134.1640 0008356 131.0189 229.1523 15.48279367  1285
DUPLEX                  
1 66906U 98067XS  26055.48204379  .00030694  00000+0  44998-3 0  9990
2 66906  51.6292 135.4660 0001746  74.5239 285.5945 15.55269683 13076
ISS OBJECT XT           
1 66907U 98067XT  26056.21232079  .00115555  00000+0  11224-2 0  9996
2 66907  51.6259 129.0857 0004007   8.4734 351.6328 15.65442147 13222
ISS OBJECT XU           
1 66908U 98067XU  26056.21124743  .00117953  00000+0  11419-2 0  9995
2 66908  51.6250 129.0753 0004039  12.4749 347.6345 15.65514560 13228
SILVERSAT               
1 66909U 98067XV  26056.23176001  .00138869  00000+0  12333-2 0  9997
2 66909  51.6248 128.4627 0004903   7.7787 352.3284 15.67569660 13237
